[{"OBJECT_NAME":"STARLINK-31149","OBJECT_ID":"2024-019L","EPOCH":"2026-03-09T12:48:25.428096","MEAN_MOTION":15.27591575,"ECCENTRICITY":6.315e-5,"INCLINATION":42.9972,"RA_OF_ASC_NODE":249.3676,"ARG_OF_PERICENTER":268.5815,"MEAN_ANOMALY":91.4965,"EPHEMERIS_TYPE":0,"CLASSIFICATION_TYPE":"U","NORAD_CAT_ID":58863,"ELEMENT_SET_NO":999,"REV_AT_EPOCH":11906,"BSTAR":-0.00014324186,"MEAN_MOTION_DOT":-4.203e-5,"MEAN_MOTION_DDOT":0},{"OBJECT_NAME":"OBJECT H","OBJECT_ID":"2026-023H","EPOCH":"2026-03-09T17:12:47.154816","MEAN_MOTION":15.23139098,"ECCENTRICITY":0.00239537,"INCLINATION":96.639,"RA_OF_ASC_NODE":144.1723,"ARG_OF_PERICENTER":117.6533,"MEAN_ANOMALY":242.7142,"EPHEMERIS_TYPE":0,"CLASSIFICATION_TYPE":"U","NORAD_CAT_ID":67681,"ELEMENT_SET_NO":999,"REV_AT_EPOCH":484,"BSTAR":0.00052586846,"MEAN_MOTION_DOT":0.00012465,"MEAN_MOTION_DDOT":0}]
